#aV2023  2 16  0  0  0.00000000     288 DD+AD WGS84 FIT  NGA
## 2249 345600.00000000   300.00000000 59991 0.0000000000000
+   32     1  2  3  4  5  6  7  8  9 10 11 12 13 14 15 16 17
+         18 19 20 21 22 23 24 25 26 27 28 29 30 31 32  0  0
+          0  0  0  0  0  0  0  0  0  0  0  0  0  0  0  0  0
+          0  0  0  0  0  0  0  0  0  0  0  0  0  0  0  0  0
+          0  0  0  0  0  0  0  0  0  0  0  0  0  0  0  0  0
++         2  2  2  2  2  2  2  2  2  2  2  2  2  2  2  2  2
++         2  2  2  2  2  2  2  2  2  2  2  2  2  2  2  0  0
++         0  0  0  0  0  0  0  0  0  0  0  0  0  0  0  0  0
++         0  0  0  0  0  0  0  0  0  0  0  0  0  0  0  0  0
++         0  0  0  0  0  0  0  0  0  0  0  0  0  0  0  0  0
%c cc cc ccc ccc cccc cccc cccc cccc ccccc ccccc ccccc ccccc
%c cc cc ccc ccc cccc cccc cccc cccc ccccc ccccc ccccc ccccc
%f  0.0000000  0.000000000  0.00000000000  0.000000000000000
%f  0.0000000  0.000000000  0.00000000000  0.000000000000000
%i    0    0    0    0      0      0      0      0         0
%i    0    0    0    0      0      0      0      0         0
/*      NGA, ST. LOUIS,MO.                                  
/*   EPHEMERIS COMPUTED FROM 2 DAYS OF DATA                 
/*   EPOCHA v8 SMOOTHER                                     
/*   G2139 IERS2010 SATIGS SATAPC                           
*  2023  2 16  4 20  0.00000000
P  1   3909.072161  14230.152253 -22406.969626    212.042353                    
V  1 -27045.867482   5464.826877   -925.582240     -0.042183                    
P  2  -7710.494205 -13568.386329  22099.786871   -620.533505                    
V  2  25282.087032  -8215.217646   4118.794523      0.025680                    
P  3  10850.875849  22088.029196 -10261.161707   -362.547410                    
V  3 -10051.383301  -8137.621351 -28371.972746      0.046443                    
P  4   1666.695628  22922.804939  13223.156643    -26.517330                    
V  4  -7737.713509  15103.334872 -25329.102848      0.082184                    
P  5   2740.977500 -16930.693484  20078.470194   -116.081828                    
V  5  19132.499926  17486.076715  12147.345086     -0.014665                    
P  6  26052.700448  -5417.263925   -245.646548    572.900037                    
V  6      3.173385   1893.976940 -32294.878080      0.043245                    
P  7  18372.331595   8902.372784  17675.136490    240.167028                    
V  7 -20636.187621   6014.090052  18402.286345     -0.070756                    
P  8  -5933.669147  25599.050708  -1939.641312   -108.711747                    
V  8  -3705.405973   1457.168247  31876.396430     -0.018351                    
P  9  10284.246013  14425.697329  19699.421995   -217.375515                    
V  9  -8273.537352  23844.064127 -13137.407317      0.070640                    
P 10 -20572.444906  -7153.302066 -15239.904939    -24.894605                    
V 10 -12105.323445 -15369.480837  22985.278931     -0.016152                    
P 11  20062.154717 -12143.380902  12449.749643   -105.462404                    
V 11  15948.967681   -428.236565 -26171.280101     -0.102588                    
P 12  -7748.621854 -22743.519429 -11709.657021   -340.891192                    
V 12  10600.477231   9960.966297 -26911.569482     -0.045942                    
P 13  13299.749047 -22580.904824   3442.510075    476.827492                    
V 13    453.536474   5312.666130  31683.359720      0.061050                    
P 14  20887.236482   9635.180402 -13384.222470    -26.046405                    
V 14   9225.858662  14458.275238  24668.194323      0.090254                    
P 15   2412.774550 -26204.649546  -2692.170668     13.854877                    
V 15   4336.313397  -2232.928603  31034.519845      0.033245                    
P 16  -6841.374786  14613.466664  20707.179943   -519.863461                    
V 16 -17276.547746 -20865.781323   9343.838142      0.017230                    
P 17  15330.869278    227.662348 -21269.458070    700.323273                    
V 17  -9588.323646  26283.929672  -6402.615541      0.024064                    
P 18 -20990.574806  -6245.903055  15131.889025   -142.558942                    
V 18  18411.566461  -5437.471198  23158.977690     -0.158560                    
P 19  17342.444491 -10168.037001 -17443.274248    278.317389                    
V 19  -7290.356536  20576.539736 -19763.552585      0.050870                    
P 20  12454.730804  -9767.504460  21341.546017    450.435196                    
V 20  21006.996568  17124.650959  -4635.355598     -0.023527                    
P 21  -4972.957040  16029.695498 -19784.669941    154.026336                    
V 21 -25919.241885   6470.544808  12224.159546      0.002078                    
P 22 -16686.518873  14141.185477 -14509.253704    427.961901                    
V 22   5161.310175 -18688.652095 -23618.066554      0.076854                    
P 23 -20661.685008 -15889.428628  -5489.583499      6.358164                    
V 23  -3214.311722  -6552.012932  30898.637310      0.016460                    
P 24    -48.097990 -16408.294856 -21180.173031    -75.640847                    
V 24  25299.658254  -7082.860905   5942.993678     -0.159787                    
P 25 -16130.993809 -21023.762095  -3674.147301    420.487263                    
V 25   4905.938639   1230.382211 -30965.250967      0.032009                    
P 26 -17147.352918   3911.771475  19878.997804    241.530831                    
V 26 -17599.499713 -18485.081999 -11137.807880      0.003099                    
P 27 -12701.483114  21412.643748   8391.702607    101.317591                    
V 27    682.375554 -11404.596699  29725.191046     -0.090037                    
P 28 -25971.406355   5003.392413  -2426.562911     14.227028                    
V 28   2242.830072  -3462.346545 -31576.146706      0.151554                    
P 29  -6477.585709 -17657.978968  18672.130422   -586.355523                    
V 29  10005.774236 -21624.272244 -17009.657789     -0.020670                    
P 30  25625.471412    288.671786   7568.636402   -530.142762                    
V 30  -8596.204388   5042.243807  29018.834494      0.012881                    
P 31 -26037.422267   6194.646821   1406.798452   -209.360787                    
V 31  -2442.450870  -2199.800578 -31249.737666     -0.010396                    
P 32 -16116.679614   3237.509404 -20653.987712   -397.531134                    
V 32   6851.411377 -25778.924856  -9510.131796     -0.115809                    
EOF
